NORAD_CAT_ID,OBJECT_NAME,OBJECT_TYPE,EPOCH,MEAN_MOTION,ECCENTRICITY,INCLINATION,RA_OF_ASC_NODE,ARG_OF_PERICENTER,MEAN_ANOMALY,BSTAR,MEAN_MOTION_DOT,MEAN_MOTION_DDOT,TLE_LINE0,TLE_LINE1,TLE_LINE2,SEMIMAJOR_AXIS,PERIOD,APOGEE,PERIGEE,DECAYED
49139.0,STARLINK-3057,PAYLOAD,2023-04-30 02:05:04,14.98342671,0.000267,70.0029,8.2607,271.5691,88.5162,0.00010774,1.193e-05,0.0,0 STARLINK-3057,1 49139U 21082K   23120.08685866  .00001193  00000-0  10774-3 0  9990,2 49139  70.0029   8.2607 0002670 271.5691  88.5162 14.98342671 90492,6950.154,96.106,573.874,570.163,0.0
49139.0,STARLINK-3057,PAYLOAD,2023-04-30 21:18:41,14.98330508,0.0002715,70.0028,6.2428,269.6919,90.3929,0.00011107,1.233e-05,0.0,0 STARLINK-3057,1 49139U 21082K   23120.88798343  .00001233  00000-0  11107-3 0  9999,2 49139  70.0028   6.2428 0002715 269.6919  90.3929 14.98330508 90613,6950.191,96.107,573.943,570.169,0.0
49139.0,STARLINK-3057,PAYLOAD,2023-05-01 02:07:05,14.98332667,0.0002767,70.0029,5.7378,270.7823,89.3019,-3.8831e-05,-5.56e-06,0.0,0 STARLINK-3057,1 49139U 21082K   23121.08826230 -.00000556  00000-0 -38831-4 0  9992,2 49139  70.0029   5.7378 0002767 270.7823  89.3019 14.98332667 90645,6950.185,96.107,573.973,570.127,0.0
49139.0,STARLINK-3057,PAYLOAD,2023-05-01 21:20:42,14.98335437,0.0002612,70.0013,3.7176,268.155,91.931,8.6326e-05,9.37e-06,0.0,0 STARLINK-3057,1 49139U 21082K   23121.88938234  .00000937  00000-0  86326-4 0  9991,2 49139  70.0013   3.7176 0002612 268.1550  91.9310 14.98335437 90763,6950.176,96.107,573.856,570.226,0.0
49139.0,STARLINK-3057,PAYLOAD,2023-05-01 22:56:50,14.98335391,0.0002614,70.0013,3.5492,268.2795,91.8064,7.8363e-05,8.42e-06,0.0,0 STARLINK-3057,1 49139U 21082K   23121.95614208  .00000842  00000-0  78363-4 0  9998,2 49139  70.0013   3.5492 0002614 268.2795  91.8064 14.98335391 90771,6950.176,96.107,573.858,570.224,0.0
49139.0,STARLINK-3057,PAYLOAD,2023-05-02 02:09:06,14.98335505,0.0002611,70.0012,3.2124,268.4598,91.6262,6.8647e-05,7.26e-06,0.0,0 STARLINK-3057,1 49139U 21082K   23122.08966144  .00000726  00000-0  68647-4 0  9997,2 49139  70.0012   3.2124 0002611 268.4598  91.6262 14.98335505 90796,6950.176,96.107,573.856,570.226,0.0
49139.0,STARLINK-3057,PAYLOAD,2023-05-02 19:46:35,14.98333641,0.0002715,70.0009,1.3601,265.8926,94.1923,0.00016587,1.887e-05,0.0,0 STARLINK-3057,1 49139U 21082K   23122.82402009  .00001887  00000-0  16587-3 0  9998,2 49139  70.0009   1.3601 0002715 265.8926  94.1923 14.98333641 90906,6950.182,96.107,573.934,570.16,0.0
49139.0,STARLINK-3057,PAYLOAD,2023-05-03 02:11:07,14.98335801,0.0002728,70.0008,0.6859,269.1792,90.9055,0.0001862,2.13e-05,0.0,0 STARLINK-3057,1 49139U 21082K   23123.09105843  .00002130  00000-0  18620-3 0  9996,2 49139  70.0008   0.6859 0002728 269.1792  90.9055 14.98335801 90948,6950.175,96.107,573.936,570.144,0.0
49139.0,STARLINK-3057,PAYLOAD,2023-05-03 08:35:40,14.98332256,0.0002633,70.0011,0.012,271.1827,88.903,0.00010654,1.179e-05,0.0,0 STARLINK-3057,1 49139U 21082K   23123.35810258  .00001179  00000-0  10654-3 0  9999,2 49139  70.0011   0.0120 0002633 271.1827  88.9030 14.98332256 90989,6950.186,96.107,573.881,570.221,0.0
49139.0,STARLINK-3057,PAYLOAD,2023-05-03 19:48:36,14.983299,0.0002596,70.001,358.8341,270.117,89.9691,5.3263e-05,5.43e-06,0.0,0 STARLINK-3057,1 49139U 21082K   23123.82542405  .00000543  00000-0  53263-4 0  9995,2 49139  70.0010 358.8341 0002596 270.1170  89.9691 14.98329900 91050,6950.193,96.107,573.862,570.254,0.0
49139.0,STARLINK-3057,PAYLOAD,2023-05-03 21:24:44,14.98329604,0.0002601,70.0009,358.6657,269.8504,90.2357,4.5632e-05,4.52e-06,0.0,0 STARLINK-3057,1 49139U 21082K   23123.89218426  .00000452  00000-0  45632-4 0  9995,2 49139  70.0009 358.6657 0002601 269.8504  90.2357 14.98329604 91065,6950.194,96.107,573.867,570.251,0.0
49139.0,STARLINK-3057,PAYLOAD,2023-05-04 02:13:08,14.98329286,0.0002617,70.001,358.1608,269.9391,90.1468,3.0828e-05,2.75e-06,0.0,0 STARLINK-3057,1 49139U 21082K   23124.09246458  .00000275  00000-0  30828-4 0  9998,2 49139  70.0010 358.1608 0002617 269.9391  90.1468 14.98329286 91091,6950.195,96.107,573.879,570.241,0.0
49139.0,STARLINK-3057,PAYLOAD,2023-05-04 21:26:45,14.98332738,0.0002655,70.001,356.1417,264.7217,95.364,3.458e-05,3.2e-06,0.0,0 STARLINK-3057,1 49139U 21082K   23124.89358152  .00000320  00000-0  34580-4 0  9991,2 49139  70.0010 356.1417 0002655 264.7217  95.3640 14.98332738 91218,6950.184,96.107,573.895,570.204,0.0
49139.0,STARLINK-3057,PAYLOAD,2023-05-05 00:39:01,14.9833288,0.0002649,70.001,355.805,264.8013,95.2844,3.3154e-05,3.03e-06,0.0,0 STARLINK-3057,1 49139U 21082K   23125.02710120  .00000303  00000-0  33154-4 0  9991,2 49139  70.0010 355.8050 0002649 264.8013  95.2844 14.98332880 91230,6950.184,96.107,573.89,570.208,0.0
49139.0,STARLINK-3057,PAYLOAD,2023-05-05 21:28:46,14.98330066,0.0002737,70.0007,353.6165,265.4728,94.6118,9.4458e-05,1.034e-05,0.0,0 STARLINK-3057,1 49139U 21082K   23125.89498161  .00001034  00000-0  94458-4 0  9990,2 49139  70.0007 353.6165 0002737 265.4728  94.6118 14.98330066 91362,6950.193,96.107,573.96,570.155,0.0
49139.0,STARLINK-3057,PAYLOAD,2023-05-06 00:41:02,14.98331252,0.0002742,70.0007,353.2799,266.2717,93.8128,0.00010375,1.145e-05,0.0,0 STARLINK-3057,1 49139U 21082K   23126.02850073  .00001145  00000-0  10375-3 0  9998,2 49139  70.0007 353.2799 0002742 266.2717  93.8128 14.98331252 91386,6950.189,96.107,573.96,570.148,0.0
49139.0,STARLINK-3057,PAYLOAD,2023-05-07 00:43:03,14.98331166,0.0002795,70.0005,350.7548,266.8003,93.2836,5.3691e-05,5.48e-06,0.0,0 STARLINK-3057,1 49139U 21082K   23127.02990272  .00000548  00000-0  53691-4 0  9990,2 49139  70.0005 350.7548 0002795 266.8003  93.2836 14.98331166 91531,6950.189,96.107,573.997,570.112,0.0
49139.0,STARLINK-3057,PAYLOAD,2023-05-07 21:32:48,14.98333156,0.0002833,70.0003,348.5669,267.244,92.8395,7.9464e-05,8.55e-06,0.0,0 STARLINK-3057,1 49139U 21082K   23127.89778021  .00000855  00000-0  79464-4 0  9998,2 49139  70.0003 348.5669 0002833 267.2440  92.8395 14.98333156 91661,6950.183,96.107,574.017,570.079,0.0
49139.0,STARLINK-3057,PAYLOAD,2023-05-08 00:45:04,14.98332335,0.0002856,70.0003,348.2303,267.5392,92.544,6.6571e-05,7.01e-06,0.0,0 STARLINK-3057,1 49139U 21082K   23128.03130093  .00000701  00000-0  66571-4 0  9991,2 49139  70.0003 348.2303 0002856 267.5392  92.5440 14.98332335 91685,6950.186,96.107,574.036,570.066,0.0
49139.0,STARLINK-3057,PAYLOAD,2023-05-08 21:34:48,14.98337167,0.0002958,69.9999,346.0423,267.1989,92.8832,0.00012443,1.392e-05,0.0,0 STARLINK-3057,1 49139U 21082K   23128.89917473  .00001392  00000-0  12443-3 0  9995,2 49139  69.9999 346.0423 0002958 267.1989  92.8832 14.98337167 91817,6950.171,96.107,574.092,569.98,0.0
49139.0,STARLINK-3057,PAYLOAD,2023-05-09 00:47:04,14.98339142,0.0002941,69.9999,345.7057,267.1011,92.9811,0.00014481,1.636e-05,0.0,0 STARLINK-3057,1 49139U 21082K   23129.03269256  .00001636  00000-0  14481-3 0  9996,2 49139  69.9999 345.7057 0002941 267.1011  92.9811 14.98339142 91839,6950.165,96.106,574.074,569.986,0.0
49139.0,STARLINK-3057,PAYLOAD,2023-05-10 00:49:06,14.98330764,0.0002796,70.0003,343.1816,265.3026,94.7814,5.1948e-05,5.27e-06,0.0,0 STARLINK-3057,1 49139U 21082K   23130.03409841  .00000527  00000-0  51948-4 0  9992,2 49139  70.0003 343.1816 0002796 265.3026  94.7814 14.98330764 91987,6950.191,96.107,573.999,570.112,0.0
49139.0,STARLINK-3057,PAYLOAD,2023-05-10 20:02:42,14.98333114,0.0002754,70.0002,341.1601,264.9107,95.1738,-7.5243e-09,-9.3e-07,0.0,0 STARLINK-3057,1 49139U 21082K   23130.83521719 -.00000093  00000-0 -75243-8 0  9997,2 49139  70.0002 341.1601 0002754 264.9107  95.1738 14.98333114 92102,6950.183,96.107,573.962,570.134,0.0
49139.0,STARLINK-3057,PAYLOAD,2023-05-10 23:14:58,14.98333635,0.0002756,70.0002,340.8235,265.5364,94.5481,3.3857e-06,-5.3e-07,0.0,0 STARLINK-3057,1 49139U 21082K   23130.96873641 -.00000053  00000-0  33857-5 0  9992,2 49139  70.0002 340.8235 0002756 265.5364  94.5481 14.98333635 92123,6950.182,96.107,573.962,570.131,0.0
49139.0,STARLINK-3057,PAYLOAD,2023-05-11 20:04:43,14.98329022,0.0002979,69.9997,338.6354,270.8974,89.1844,4.0148e-05,3.86e-06,0.0,0 STARLINK-3057,1 49139U 21082K   23131.83661851  .00000386  00000-0  40148-4 0  9995,2 49139  69.9997 338.6354 0002979 270.8974  89.1844 14.98329022 92255,6950.196,96.107,574.131,569.99,0.0
49139.0,STARLINK-3057,PAYLOAD,2023-05-11 23:16:59,14.98329099,0.0002977,69.9998,338.2987,270.7731,89.3087,3.9836e-05,3.82e-06,0.0,0 STARLINK-3057,1 49139U 21082K   23131.97013872  .00000382  00000-0  39836-4 0  9992,2 49139  69.9998 338.2987 0002977 270.7731  89.3087 14.98329099 92279,6950.196,96.107,574.13,569.992,0.0
49139.0,STARLINK-3057,PAYLOAD,2023-05-12 20:06:44,14.98332175,0.0003107,69.9994,336.1092,269.3366,90.7437,8.2251e-05,8.89e-06,0.0,0 STARLINK-3057,1 49139U 21082K   23132.83801606  .00000889  00000-0  82251-4 0  9999,2 49139  69.9994 336.1092 0003107 269.3366  90.7437 14.98332175 92402,6950.186,96.107,574.211,569.892,0.0
49139.0,STARLINK-3057,PAYLOAD,2023-05-12 23:19:01,14.98304016,0.0002877,69.9995,335.7731,270.7704,89.3125,0.00060594,7.139e-05,0.0,0 STARLINK-3057,1 49139U 21082K   23132.97154370  .00007139  00000-0  60594-3 0  9993,2 49139  69.9995 335.7731 0002877 270.7704  89.3125 14.98304016 92426,6950.273,96.109,574.138,570.139,0.0
49139.0,STARLINK-3057,PAYLOAD,2023-05-13 13:44:13,14.98330526,0.000305,69.9996,334.2577,270.6403,89.4407,7.4991e-05,8.02e-06,0.0,0 STARLINK-3057,1 49139U 21082K   23133.57237651  .00000802  00000-0  74991-4 0  9991,2 49139  69.9996 334.2577 0003050 270.6403  89.4407 14.98330526 92517,6950.191,96.107,574.176,569.936,0.0
49139.0,STARLINK-3057,PAYLOAD,2023-05-13 20:08:45,14.98329426,0.0003078,69.9996,333.5851,271.7247,88.3559,0.00011381,1.265e-05,0.0,0 STARLINK-3057,1 49139U 21082K   23133.83941626  .00001265  00000-0  11381-3 0  9991,2 49139  69.9996 333.5851 0003078 271.7247  88.3559 14.98329426 92559,6950.195,96.107,574.199,569.92,0.0
